QZS-1R                  
1 49336U 21096A   23317.72987565 -.00000186  00000+0  00000+0 0  9992
2 49336  35.5010  93.8387 0749871 270.5248  86.1012  1.00268699  7526
